NORAD_CAT_ID,OBJECT_NAME,OBJECT_TYPE,EPOCH,MEAN_MOTION,ECCENTRICITY,INCLINATION,RA_OF_ASC_NODE,ARG_OF_PERICENTER,MEAN_ANOMALY,BSTAR,MEAN_MOTION_DOT,MEAN_MOTION_DDOT,TLE_LINE0,TLE_LINE1,TLE_LINE2,SEMIMAJOR_AXIS,PERIOD,APOGEE,PERIGEE,DECAYED
54157.0,STARLINK-5290,PAYLOAD,2024-02-04 17:22:54,15.08843653,0.0001392,53.2162,203.7511,86.4622,273.6529,8.3325e-05,1.039e-05,0.0,0 STARLINK-5290,1 54157U 22141A   24035.72424328  .00001039  00000-0  83325-4 0  9996,2 54157  53.2162 203.7511 0001392  86.4622 273.6529 15.08843653 70380,6917.869,95.437,540.697,538.771,0.0
54157.0,STARLINK-5290,PAYLOAD,2024-02-05 14:02:55,15.08841404,0.0001388,53.2162,199.8853,85.9539,274.1612,3.559e-05,2.79e-06,0.0,0 STARLINK-5290,1 54157U 22141A   24036.58536561  .00000279  00000-0  35590-4 0  9990,2 54157  53.2162 199.8853 0001388  85.9539 274.1612 15.08841404 70516,6917.876,95.437,540.701,538.781,0.0
54157.0,STARLINK-5290,PAYLOAD,2024-02-05 17:13:41,15.08841507,0.0001378,53.2161,199.2906,86.0136,274.1014,3.4053e-05,2.54e-06,0.0,0 STARLINK-5290,1 54157U 22141A   24036.71784533  .00000254  00000-0  34053-4 0  9995,2 54157  53.2161 199.2906 0001378  86.0136 274.1014 15.08841507 70534,6917.876,95.437,540.694,538.787,0.0
54157.0,STARLINK-5290,PAYLOAD,2024-02-06 13:53:42,15.08841196,0.0001383,53.2158,195.4256,83.0713,277.0437,3.0028e-05,1.9e-06,0.0,0 STARLINK-5290,1 54157U 22141A   24037.57896532  .00000190  00000-0  30028-4 0  9990,2 54157  53.2158 195.4256 0001383  83.0713 277.0437 15.08841196 70669,6917.877,95.437,540.698,538.785,0.0
54157.0,STARLINK-5290,PAYLOAD,2024-02-06 17:04:28,15.08840742,0.0001386,53.2163,194.8315,87.9419,272.1731,3.6791e-05,2.98e-06,0.0,0 STARLINK-5290,1 54157U 22141A   24037.71144505  .00000298  00000-0  36791-4 0  9994,2 54157  53.2163 194.8315 0001386  87.9419 272.1731 15.08840742 70684,6917.878,95.438,540.702,538.784,0.0
54157.0,STARLINK-5290,PAYLOAD,2024-02-07 10:33:43,15.08836534,0.0001415,53.2166,191.5624,88.8305,271.2849,3.2554e-05,2.3e-06,0.0,0 STARLINK-5290,1 54157U 22141A   24038.44008898  .00000230  00000-0  32554-4 0  9998,2 54157  53.2166 191.5624 0001415  88.8305 271.2849 15.08836534 70797,6917.891,95.438,540.735,538.777,0.0
54157.0,STARLINK-5290,PAYLOAD,2024-02-07 13:44:30,15.08835487,0.0001424,53.217,190.967,97.5412,262.5742,2.2852e-05,7.6e-07,0.0,0 STARLINK-5290,1 54157U 22141A   24038.57256988  .00000076  00000-0  22852-4 0  9995,2 54157  53.2170 190.9670 0001424  97.5412 262.5742 15.08835487 70816,6917.894,95.438,540.744,538.774,0.0
54157.0,STARLINK-5290,PAYLOAD,2024-02-07 18:30:39,15.08839978,0.0001264,53.2164,190.0715,79.1738,280.9396,4.4401e-05,4.19e-06,0.0,0 STARLINK-5290,1 54157U 22141A   24038.77128703  .00000419  00000-0  44401-4 0  9995,2 54157  53.2164 190.0715 0001264  79.1738 280.9396 15.08839978 70840,6917.88,95.438,540.62,538.871,0.0
54157.0,STARLINK-5290,PAYLOAD,2024-02-08 10:24:31,15.08832406,0.0001389,53.2163,187.0966,88.346,271.7692,-4.2952e-05,-9.71e-06,0.0,0 STARLINK-5290,1 54157U 22141A   24039.43369819 -.00000971  00000-0 -42952-4 0  9998,2 54157  53.2163 187.0966 0001389  88.3460 271.7692 15.08832406 70942,6917.904,95.438,540.729,538.808,0.0
54157.0,STARLINK-5290,PAYLOAD,2024-02-08 13:35:17,15.08833999,0.0001287,53.218,186.5003,93.6423,266.4716,-6.1756e-05,-1.27e-05,0.0,0 STARLINK-5290,1 54157U 22141A   24039.56617788 -.00001270  00000-0 -61756-4 0  9999,2 54157  53.2180 186.5003 0001287  93.6423 266.4716 15.08833999 70960,6917.899,95.438,540.654,538.873,0.0
54157.0,STARLINK-5290,PAYLOAD,2024-02-08 15:10:41,15.08830998,0.0001286,53.2166,186.2082,65.2808,294.8317,-1.8608e-05,-5.84e-06,0.0,0 STARLINK-5290,1 54157U 22141A   24039.63242000 -.00000584  00000-0 -18608-4 0  9993,2 54157  53.2166 186.2082 0001286  65.2808 294.8317 15.08830998 70978,6917.908,95.438,540.663,538.883,0.0
54157.0,STARLINK-5290,PAYLOAD,2024-02-09 10:15:18,15.08837363,0.0001228,53.2168,182.6365,76.1043,284.0085,7.1201e-05,8.45e-06,0.0,0 STARLINK-5290,1 54157U 22141A   24040.42729579  .00000845  00000-0  71201-4 0  9999,2 54157  53.2168 182.6365 0001228  76.1043 284.0085 15.08837363 71092,6917.888,95.438,540.603,538.904,0.0
54157.0,STARLINK-5290,PAYLOAD,2024-02-09 13:26:04,15.08842881,0.0001249,53.217,182.0418,70.6714,289.4413,0.00010376,1.364e-05,0.0,0 STARLINK-5290,1 54157U 22141A   24040.55977209  .00001364  00000-0  10376-3 0  9990,2 54157  53.2170 182.0418 0001249  70.6714 289.4413 15.08842881 71113,6917.872,95.437,540.601,538.873,0.0
54157.0,STARLINK-5290,PAYLOAD,2024-02-09 15:01:27,15.08844286,0.0001241,53.2163,181.743,84.9059,275.2074,0.00011191,1.494e-05,0.0,0 STARLINK-5290,1 54157U 22141A   24040.62601043  .00001494  00000-0  11191-3 0  9998,2 54157  53.2163 181.7430 0001241  84.9059 275.2074 15.08844286 71125,6917.867,95.437,540.591,538.874,0.0
54157.0,STARLINK-5290,PAYLOAD,2024-02-10 13:16:51,15.08840223,0.000152,53.2171,177.583,109.0238,251.0919,9.6823e-05,1.253e-05,0.0,0 STARLINK-5290,1 54157U 22141A   24041.55337543  .00001253  00000-0  96823-4 0  9991,2 54157  53.2171 177.5830 0001520 109.0238 251.0919 15.08840223 71261,6917.88,95.438,540.796,538.693,0.0
54157.0,STARLINK-5290,PAYLOAD,2024-02-10 18:03:00,15.08847792,0.0001251,53.2168,176.6899,88.9979,271.1157,0.0001573,2.217e-05,0.0,0 STARLINK-5290,1 54157U 22141A   24041.75208967  .00002217  00000-0  15730-3 0  9998,2 54157  53.2168 176.6899 0001251  88.9979 271.1157 15.08847792 71298,6917.857,95.437,540.587,538.856,0.0
54157.0,STARLINK-5290,PAYLOAD,2024-02-11 08:21:29,15.08845609,0.0001291,53.2169,174.0149,107.5237,252.5896,4.5026e-06,-2.16e-06,0.0,0 STARLINK-5290,1 54157U 22141A   24042.34825344 -.00000216  00000-0  45026-5 0  9999,2 54157  53.2169 174.0149 0001291 107.5237 252.5896 15.08845609 71386,6917.863,95.437,540.621,538.835,0.0
54157.0,STARLINK-5290,PAYLOAD,2024-02-11 14:43:01,15.0884588,0.0001481,53.2168,172.8257,99.2791,260.8369,4.6319e-05,4.49e-06,0.0,0 STARLINK-5290,1 54157U 22141A   24042.61321206  .00000449  00000-0  46319-4 0  9999,2 54157  53.2168 172.8257 0001481  99.2791 260.8369 15.08845880 71427,6917.862,95.437,540.752,538.703,0.0
54157.0,STARLINK-5290,PAYLOAD,2024-02-11 16:18:24,15.08849013,0.0001353,53.2159,172.529,72.5281,287.5859,3.1105e-05,2.07e-06,0.0,0 STARLINK-5290,1 54157U 22141A   24042.67945113  .00000207  00000-0  31105-4 0  9993,2 54157  53.2159 172.5290 0001353  72.5281 287.5859 15.08849013 71430,6917.853,95.437,540.654,538.782,0.0
54157.0,STARLINK-5290,PAYLOAD,2024-02-12 14:33:48,15.08845757,0.0001849,53.2156,168.3672,51.0142,309.1015,0.00010546,1.391e-05,0.0,0 STARLINK-5290,1 54157U 22141A   24043.60681050  .00001391  00000-0  10546-3 0  9994,2 54157  53.2156 168.3672 0001849  51.0142 309.1015 15.08845757 71573,6917.863,95.437,541.007,538.449,0.0
54157.0,STARLINK-5290,PAYLOAD,2024-02-13 11:13:49,15.08840229,0.0001424,53.2176,164.4996,86.2083,273.9072,-3.9218e-05,-9.12e-06,0.0,0 STARLINK-5290,1 54157U 22141A   24044.46793711 -.00000912  00000-0 -39218-4 0  9995,2 54157  53.2176 164.4996 0001424  86.2083 273.9072 15.08840229 71709,6917.88,95.438,540.73,538.76,0.0
54157.0,STARLINK-5290,PAYLOAD,2024-02-13 14:24:36,15.08839942,0.0001266,53.2163,163.9028,91.0516,269.0621,-4.7101e-05,-1.037e-05,0.0,0 STARLINK-5290,1 54157U 22141A   24044.60041694 -.00001037  00000-0 -47101-4 0  9996,2 54157  53.2163 163.9028 0001266  91.0516 269.0621 15.08839942 71722,6917.881,95.438,540.621,538.87,0.0
54157.0,STARLINK-5290,PAYLOAD,2024-02-14 14:15:23,15.08838242,0.000133,53.2179,159.4473,82.263,277.8513,1.0274e-05,-1.24e-06,0.0,0 STARLINK-5290,1 54157U 22141A   24045.59402057 -.00000124  00000-0  10274-4 0  9995,2 54157  53.2179 159.4473 0001330  82.2630 277.8513 15.08838242 71879,6917.886,95.438,540.671,538.831,0.0
54157.0,STARLINK-5290,PAYLOAD,2024-02-14 17:26:09,15.08846715,0.0001453,53.2145,158.8471,85.5863,274.5295,4.8107e-05,4.78e-06,0.0,0 STARLINK-5290,1 54157U 22141A   24045.72649325  .00000478  00000-0  48107-4 0  9998,2 54157  53.2145 158.8471 0001453  85.5863 274.5295 15.08846715 71890,6917.86,95.437,540.73,538.72,0.0
54157.0,STARLINK-5290,PAYLOAD,2024-02-15 10:55:24,15.08831545,0.0001442,53.2163,155.5765,100.2954,259.8201,8.7084e-05,1.098e-05,0.0,0 STARLINK-5290,1 54157U 22141A   24046.45514446  .00001098  00000-0  87084-4 0  9990,2 54157  53.2163 155.5765 0001442 100.2954 259.8201 15.08831545 72006,6917.906,95.438,540.769,538.774,0.0
54157.0,STARLINK-5290,PAYLOAD,2024-02-15 14:06:10,15.08836624,0.0001535,53.2165,154.9825,99.3558,260.7608,0.00011605,1.559e-05,0.0,0 STARLINK-5290,1 54157U 22141A   24046.58762132  .00001559  00000-0  11605-3 0  9998,2 54157  53.2165 154.9825 0001535  99.3558 260.7608 15.08836624 72026,6917.891,95.438,540.818,538.694,0.0
54157.0,STARLINK-5290,PAYLOAD,2024-02-15 17:16:56,15.08844252,0.0001341,53.2152,154.3879,92.6857,267.4288,0.00018663,2.684e-05,0.0,0 STARLINK-5290,1 54157U 22141A   24046.72009512  .00002684  00000-0  18663-3 0  9991,2 54157  53.2152 154.3879 0001341  92.6857 267.4288 15.08844252 72044,6917.867,95.437,540.66,538.805,0.0
54157.0,STARLINK-5290,PAYLOAD,2024-02-15 23:38:29,15.08838485,0.0001205,53.2144,153.1963,87.2772,272.8358,0.00014453,2.013e-05,0.0,0 STARLINK-5290,1 54157U 22141A   24046.98505935  .00002013  00000-0  14453-3 0  9998,2 54157  53.2144 153.1963 0001205  87.2772 272.8358 15.08838485 72084,6917.885,95.438,540.584,538.916,0.0
54157.0,STARLINK-5290,PAYLOAD,2024-02-16 13:56:56,15.08850001,0.000128,53.2145,150.5239,90.1411,269.9728,8.1843e-05,1.015e-05,0.0,0 STARLINK-5290,1 54157U 22141A   24047.58121495  .00001015  00000-0  81843-4 0  9999,2 54157  53.2145 150.5239 0001280  90.1411 269.9728 15.08850001 72174,6917.85,95.437,540.6,538.829,0.0
54157.0,STARLINK-5290,PAYLOAD,2024-02-17 12:12:21,15.0884135,0.0001532,53.2166,146.365,104.1564,255.9598,1.1183e-05,-1.1e-06,0.0,0 STARLINK-5290,1 54157U 22141A   24048.50858349 -.00000110  00000-0  11183-4 0  9993,2 54157  53.2166 146.3650 0001532 104.1564 255.9598 15.08841350 72315,6917.876,95.437,540.801,538.681,0.0
